{"landskapsomr\u00e5de": {}, "fjellomr\u00e5de": {"natural": "mountain_range"}, "vidde": {"natural": "plateau"}, "skogomr\u00e5de": {"natural": "wood"}, "fjell": {"natural": "hill", "place": "locality", "fixme": "consider natural=peak for the most distinct mountains in the district"}, "berg": {"natural": "hill", "place": "locality"}, "h\u00f8yde": {"natural": "hill", "place": "locality"}, "\u00e5s": {"natural": "hill", "place": "locality", "fixme": "consider natural=peak for the most distinct mountains in the district"}, "rygg": {"natural": "ridge", "place": "locality"}, "haug": {"natural": "hill", "place": "locality"}, "hei": {"natural": "hill", "place": "locality"}, "topp": {"natural": "hill", "place": "locality", "fixme": "consider natural=peak for the most distinct mountains in the district"}, "fjellkant": {"place": "locality"}, "egg": {"natural": "ridge", "place": "locality"}, "hammar": {"natural": "cliff"}, "dalf\u00f8re": {"natural": "valley", "place": "locality"}, "dal": {"natural": "valley", "place": "locality"}, "botn": {"natural": "valley", "place": "locality"}, "skar": {"natural": "valley", "place": "locality", "fixme": "consider natural=saddle"}, "juv": {"natural": "gorge"}, "s\u00f8kk": {"natural": "valley", "place": "locality"}, "senkning": {"natural": "valley", "place": "locality"}, "krater": {"place": "locality"}, "mo": {"place": "locality"}, "slette": {"place": "locality"}, "li": {"natural": "slope", "place": "locality"}, "bakke": {"natural": "slope", "place": "locality"}, "fjellside": {"place": "locality"}, "fjellvegg": {"natural": "cliff"}, "hylle": {"place": "locality"}, "stup": {"natural": "cliff"}, "heller": {"place": "locality"}, "grotte": {"natural": "cave_entrance"}, "geologiskstruktur": {"place": "locality"}, "annenterrengdetalj": {"place": "locality"}, "fjellidagen": {"place": "locality"}, "sva": {"place": "locality"}, "ur": {"natural": "scree"}, "stein": {"natural": "stone"}, "sand": {"natural": "beach", "surface": "sand"}, "elvemel": {"place": "locality"}, "\u00f8yr": {"place": "locality"}, "skredomr\u00e5de": {"natural": "scree", "place": "locality"}, "skog": {"place": "locality"}, "skogholt": {"place": "locality"}, "myr": {"natural": "wetland"}, "v\u00e5tmarksomr\u00e5de": {"natural": "wetland"}, "eng": {"landuse": "meadow"}, "jorde": {"place": "locality"}, "havnehage": {"place": "locality"}, "setervoll": {"historic": "shieling", "place": "locality"}, "melkeplass": {"historic": "shieling", "place": "locality"}, "utmark": {"place": "locality"}, "isbre": {"natural": "glacier"}, "fonn": {"place": "locality"}, "iskuppel": {"natural": "glacier"}, "torvtak": {"landuse": "peat_cutting"}, "grustaksteinbrudd": {"landuse": "quarry"}, "bergverk": {"landuse": "quarry"}, "fyllplass": {"landuse": "landfill"}, "innsj\u00f8": {"natural": "water", "water": "lake"}, "delavinnsj\u00f8": {"natural": "water"}, "vann": {"natural": "water", "water": "lake"}, "gruppeavvann": {"natural": "water", "water": "lake"}, "tjern": {"natural": "water"}, "gruppeavtjern": {"natural": "water", "water": "lake"}, "pytt": {"natural": "water", "water": "pond"}, "dam": {"waterway": "dam"}, "delavvann": {"natural": "water"}, "\u00f8y": {"place": "island"}, "\u00f8ygruppe": {"place": "island"}, "holme": {"place": "islet"}, "nes": {"natural": "cape"}, "halv\u00f8y": {"natural": "peninsula", "place": "locality"}, "vik": {"natural": "bay"}, "strand": {"natural": "beach"}, "sund": {"natural": "strait"}, "eid": {"natural": "isthmus", "place": "locality"}, "grunne": {"natural": "shoal", "place": "locality"}, "skj\u00e6r": {"place": "islet"}, "b\u00e5e": {"seamark:type": "rock", "place": "locality"}, "banke": {"natural": "shoal"}, "elv": {"waterway": "river"}, "bekk": {"waterway": "stream"}, "gr\u00f8ft": {"waterway": "drain"}, "foss": {"natural": "waterfall"}, "stryk": {"waterway": "rapids"}, "os": {"natural": "bay"}, "h\u00f8l": {"place": "locality"}, "lon": {"natural": "water", "water": "lake"}, "fl\u00f8tningsanlegg": {"place": "locality"}, "kilde": {"natural": "spring"}, "elvesving": {"waterway": "river"}, "nesvedelver": {"natural": "cape"}, "annenvanndetalj": {"place": "locality"}, "havomr\u00e5de": {"place": "sea"}, "havstr\u00f8m": {}, "sj\u00f8stykke": {"natural": "bay"}, "fjordmunning": {"natural": "bay", "bay": "fjord"}, "fjord": {"natural": "bay", "bay": "fjord"}, "fiskeplassisj\u00f8": {}, "\u00f8yisj\u00f8": {"place": "island"}, "\u00f8ygruppeisj\u00f8": {"place": "island"}, "holmeisj\u00f8": {"place": "islet"}, "holmegruppeisj\u00f8": {"place": "islet"}, "nesisj\u00f8": {"natural": "cape"}, "halv\u00f8yisj\u00f8": {"natural": "peninsula", "place": "locality"}, "vikisj\u00f8": {"natural": "bay"}, "strandisj\u00f8": {"natural": "beach"}, "sundisj\u00f8": {"natural": "strait"}, "eidisj\u00f8": {"natural": "isthmus", "place": "locality"}, "v\u00e5gisj\u00f8": {"natural": "bay"}, "grunneisj\u00f8": {"natural": "shoal", "place": "locality"}, "skj\u00e6risj\u00f8": {"place": "islet", "fixme": "consider seamark:type=rock or natural=shoal"}, "b\u00e5eisj\u00f8": {"seamark:type": "rock", "place": "locality"}, "klakkisj\u00f8": {"natural": "shoal"}, "bankeisj\u00f8": {}, "bakkeisj\u00f8": {}, "bakketoppisj\u00f8": {}, "s\u00f8kkisj\u00f8": {}, "rennekl\u00f8ftisj\u00f8": {}, "ryggisj\u00f8": {}, "moreneryggisj\u00f8": {}, "eggisj\u00f8": {}, "korallrev": {"natural": "reef"}, "revisj\u00f8": {"natural": "shoal"}, "hylleisj\u00f8": {}, "undersj\u00f8iskvegg": {}, "rasisj\u00f8": {}, "fjelltoppisj\u00f8": {}, "fjellkjedeisj\u00f8": {}, "sadelisj\u00f8": {}, "sokkelisj\u00f8": {}, "vulkanisj\u00f8": {}, "plat\u00e5isj\u00f8": {}, "kontinentalsokkel": {}, "gass-oljefeltisj\u00f8": {}, "bassengisj\u00f8": {}, "havdyp": {}, "sj\u00f8detalj": {}, "by": {"place": "town"}, "bydel": {"place": "suburb"}, "tettsted": {"place": "village"}, "tettsteddel": {"place": "quarter"}, "tettbebyggelse": {"place": "quarter"}, "bygdelagbygd": {"place": "quarter"}, "grend": {"place": "hamlet"}, "boligfelt": {"place": "neighbourhood"}, "hyttefelt": {"place": "neighbourhood"}, "industriomr\u00e5de": {"place": "neighbourhood"}, "historiskbosetting": {"place": "locality"}, "torg": {"place": "square"}, "tuft": {"place": "locality"}, "navnegard": {"place": "farm"}, "gard": {"place": "farm"}, "bruk": {"place": "farm"}, "seterst\u00f8l": {"place": "isolated_dwelling", "historic": "shieling"}, "byggforjordbrukfiskeogfangst": {"place": "locality"}, "eiendom": {"place": "locality"}, "gjerde": {"barrier": "fence"}, "eiendomsteig": {"place": "locality"}, "st\u00f8lssetereiendom": {"place": "isolated_dwelling", "historic": "shieling"}, "eneboligmindreboligbygg": {"place": "isolated_dwelling"}, "fritidsbolig": {"place": "isolated_dwelling"}, "boligblokk": {"building": "apartments"}, "borettslag": {"place": "neighbourhood"}, "gammelbosettingsplass": {"place": "locality"}, "forretningsbygg": {"building": "commercial"}, "serveringssted": {"amenity": "cafe"}, "hotell": {"tourism": "hotel"}, "pensjonat": {"tourism": "guest_house"}, "turisthytte": {"tourism": "wilderness_hut", "fixme": "consider tourism=alpine_hut or tourism=chalet"}, "campingplass": {"tourism": "camp_site"}, "annenindustri-oglagerbygning": {"building": "industrial"}, "fabrikk": {"building": "industrial", "industrial": "factory"}, "oppdrettsanlegg": {"landuse": "aquaculture"}, "vannverk": {"man_made": "water_works"}, "boinstitusjon": {"amenity": "social_facility", "social_facility": "group_home"}, "r\u00e5dhus": {"amenity": "townhall"}, "vaktstasjonberedsskapsbygning": {"building": "civic"}, "sykehus": {"amenity": "hospital"}, "helseinstitusjon": {"amenity": "nursing_home"}, "barnehage": {"amenity": "kindergarten"}, "skole": {"amenity": "school"}, "universiteth\u00f8gskole": {"amenity": "university"}, "forskningsstasjon": {"building": "yes"}, "fengsel": {"amenity": "prison"}, "milit\u00e6rtbygganlegg": {"landuse": "military"}, "park": {"leisure": "park"}, "idrettsanlegg": {"leisure": "pitch"}, "idrettshall": {"amenity": "sports_centre"}, "forn\u00f8yelsespark": {"tourism": "theme_park"}, "skiheis": {"aerialway": "drag_lift", "fixme": "consider the other aerialway types"}, "alpinanlegg": {"landuse": "winter_sports", "piste:type": "downhill"}, "badeplass": {"leisure": "swimming_area", "place": "locality", "fixme": "consider natural=beach + surface=sand"}, "matrikkeladressenavn": {}, "adressetilleggsnavn": {}, "adressenavn": {}, "traktorveg": {"highway": "track", "fixme": "consider highway=path"}, "sti": {"highway": "path"}, "vegkryss": {"junction": "yes", "place": "locality"}, "vegsving": {"place": "locality"}, "bakkeveg": {"place": "locality"}, "vegstrekning": {}, "vad": {"ford": "yes", "place": "locality"}, "grind": {"place": "locality"}, "t\u00f8mmervelte": {"place": "locality"}, "busstopp": {"highway": "bus_stop"}, "parkeringsplass": {"amenity": "parking"}, "busstasjon": {"amenity": "bus_station"}, "fjellovergang": {"mountain_pass": "yes"}, "stasjon": {"railway": "station", "train": "yes"}, "holdeplass": {"railway": "halt", "train": "yes"}, "banestrekning": {}, "jernbanebru": {"bridge": "yes", "layer": "1"}, "jernbanetunnel": {"tunnel": "yes", "layer": "-1"}, "flyplass": {"aeroway": "aerodrome"}, "landingsplass": {"aeroway": "airstrip"}, "helikopterlandingsplass": {"aeroway": "heliport"}, "farledskipslei": {"place": "locality"}, "ferjestrekning": {"place": "locality"}, "havn": {"landuse": "harbour", "seamark:type": "harbour"}, "kai": {"man_made": "quay", "place": "locality"}, "brygge": {"man_made": "quay", "place": "locality"}, "ferjekai": {"amenity": "ferry_terminal"}, "ankringsplass": {"place": "locality"}, "sm\u00e5b\u00e5thavn": {"leisure": "marina"}, "st\u00f8": {"mooring": "yes", "place": "locality", "fixme": "verify maritime location"}, "utstikker": {"man_made": "pier", "place": "locality"}, "molo": {"man_made": "breakwater", "place": "locality"}, "sluse": {"waterway": "lock_gate"}, "kanal": {"waterway": "canal"}, "fyrstasjon": {}, "fyrlykt": {}, "lanterne": {}, "jernstang": {}, "stake": {}, "lysb\u00f8ye": {}, "b\u00e5ke": {}, "overett": {}, "sj\u00f8varde": {}, "varde": {"man_made": "cairn", "place": "locality"}, "sj\u00f8merkemedindirektebelysning": {}, "tunnel": {"tunnel": "yes", "layer": "-1"}, "bru": {"bridge": "yes", "layer": "1"}, "klopp": {"bridge": "yes", "layer": "1"}, "bomstasjon": {"barrier": "toll_booth"}, "vegbom": {"barrier": "lift_gate", "place": "locality"}, "rasteplass": {"highway": "rest_area"}, "garasjehangarbygg": {"amenity": "parking"}, "fjellheis": {"aerialway": "gondola"}, "taubane": {"aerialway": "goods"}, "overbygg": {"tunnel": "avalanche_protector", "layer": "-1"}, "mindrebrukonstruksjon": {}, "kraftstasjon": {"power": "plant", "landuse": "industrial"}, "kraftledning": {}, "kraftgater\u00f8rgate": {"man_made": "pipeline", "substance": "water"}, "r\u00f8rledning": {"man_made": "pipeline"}, "kabel": {"seamark:type": "cable_submarine"}, "oljeinstallasjon": {"man_made": "offshore_platform", "seamark:type": "platform"}, "vannstandsm\u00e5ler": {"man_made": "monitoring_station", "monitoring:water_Level": "yes"}, "tv-radio-ellermobiltelefont\u00e5rn": {"man_made": "tower", "tower:type": "communications"}, "nasjon": {}, "fylke": {}, "kommune": {}, "administrativbydel": {}, "grunnkrets": {"place": "locality"}, "skolekrets": {"place": "locality"}, "valgkrets": {}, "sokn": {"place": "hamlet"}, "poststed": {}, "grensemerke": {"man_made": "cairn", "historic": "boundary_stone", "place": "locality"}, "statistisktettsted": {}, "annenadministrativinndeling": {}, "reinbeitedistrikt": {}, "verneomr\u00e5de": {"leisure": "nature_reserve", "fixme": "consider boundary=protected_area and relevant protect_class if not nature reserve"}, "allmenning": {"place": "locality"}, "skytefelt": {"military": "range"}, "skytebane": {"sport": "shooting", "leisure": "pitch", "fixme": "specify shooting=range, clay_pigeon etc"}, "soneinndelingtilhavs": {}, "friluftsomr\u00e5de": {"landuse": "recreation_ground"}, "severdighet": {"tourism": "attraction"}, "utsiktspunkt": {"tourism": "viewpoint"}, "offersted": {"historic": "heritage", "place": "locality"}, "annenkulturdetalj": {"place": "locality"}, "museumgalleribibliotek": {"tourism": "museum"}, "forsamlingshuskulturhus": {"amenity": "community_centre"}, "kirke": {"amenity": "place_of_worship", "religion": "christian", "denomination": "lutheran"}, "annenbygningforreligionsut\u00f8velse": {"amenity": "place_of_worship", "fixme": "specify religion=*, denomination=*, building=* etc"}, "gravplass": {"cemetery": "grave", "place": "locality"}, "kulturmessehall": {"amenity": "conference_centre"}}